{
  "type": "FeatureCollection",
  "features": [
    {
      "type": "Feature",
      "properties": {
        "norad_id": 66624,
        "name": "STARLINK-35927",
        "group": "last-30-days",
        "lat": -27.534801344774536,
        "lon": 120.24199089933273,
        "alt_km": 435.9340163492643,
        "timestamp": "2025-12-21T22:41:40.163583+00:00",
        "meta_object_name": "STARLINK-35927",
        "meta_object_id": "2025-271H",
        "meta_epoch": "2025-12-19T22:44:25.582848",
        "meta_mean_motion": 15.46532201,
        "meta_eccentricity": 8.49e-05,
        "meta_inclination": 53.159,
        "meta_ra_of_asc_node": 152.7553,
        "meta_arg_of_pericenter": 106.2501,
        "meta_mean_anomaly": 253.86,
        "meta_ephemeris_type": 0,
        "meta_classification_type": "U",
        "meta_norad_cat_id": 66624,
        "meta_element_set_no": 999,
        "meta_rev_at_epoch": 532,
        "meta_bstar": -0.0084107,
        "meta_mean_motion_dot": -0.00403682,
        "meta_mean_motion_ddot": 0,
        "tle_line1": "1 66624U 25271H   25353.94751832 -.00403682  00000+0 -84107-2 0  9994",
        "tle_line2": "2 66624  53.1590 152.7553 0000849 106.2501 253.8600 15.46532201  5326"
      },
      "geometry": {
        "type": "Point",
        "coordinates": [
          120.24199089933273,
          -27.534801344774536
        ]
      }
    },
    {
      "type": "Feature",
      "properties": {
        "norad_id": 66625,
        "name": "STARLINK-35929",
        "group": "last-30-days",
        "lat": -49.68397368927231,
        "lon": 25.469051015454394,
        "alt_km": 452.4855437559436,
        "timestamp": "2025-12-21T22:41:40.163593+00:00",
        "meta_object_name": "STARLINK-35929",
        "meta_object_id": "2025-271J",
        "meta_epoch": "2025-12-21T14:00:01.999872",
        "meta_mean_motion": 15.39616004,
        "meta_eccentricity": 7.606e-05,
        "meta_inclination": 53.1597,
        "meta_ra_of_asc_node": 145.1036,
        "meta_arg_of_pericenter": 87.1362,
        "meta_mean_anomaly": 316.2602,
        "meta_ephemeris_type": 0,
        "meta_classification_type": "U",
        "meta_norad_cat_id": 66625,
        "meta_element_set_no": 999,
        "meta_rev_at_epoch": 566,
        "meta_bstar": -8.8927775e-05,
        "meta_mean_motion_dot": -3.953e-05,
        "meta_mean_motion_ddot": 0,
        "tle_line1": "1 66625U 25271J   25355.58335648 -.00003953  00000+0 -88928-4 0  9994",
        "tle_line2": "2 66625  53.1597 145.1036 0000760  87.1362 316.2602 15.39616004  5669"
      },
      "geometry": {
        "type": "Point",
        "coordinates": [
          25.469051015454394,
          -49.68397368927231
        ]
      }
    },
    {
      "type": "Feature",
      "properties": {
        "norad_id": 66626,
        "name": "STARLINK-35902",
        "group": "last-30-days",
        "lat": 3.837132417740262,
        "lon": -39.332799887602725,
        "alt_km": 447.56930646761975,
        "timestamp": "2025-12-21T22:41:40.163603+00:00",
        "meta_object_name": "STARLINK-35902",
        "meta_object_id": "2025-271K",
        "meta_epoch": "2025-12-21T00:00:02.000160",
        "meta_mean_motion": 15.39615057,
        "meta_eccentricity": 0.00015011,
        "meta_inclination": 53.1595,
        "meta_ra_of_asc_node": 148.0064,
        "meta_arg_of_pericenter": 83.5733,
        "meta_mean_anomaly": 247.5443,
        "meta_ephemeris_type": 0,
        "meta_classification_type": "U",
        "meta_norad_cat_id": 66626,
        "meta_element_set_no": 999,
        "meta_rev_at_epoch": 557,
        "meta_bstar": 0.00017950607,
        "meta_mean_motion_dot": 6.786e-05,
        "meta_mean_motion_ddot": 0,
        "tle_line1": "1 66626U 25271K   25355.00002315  .00006786  00000+0  17951-3 0  9996",
        "tle_line2": "2 66626  53.1595 148.0064 0001501  83.5733 247.5443 15.39615057  5573"
      },
      "geometry": {
        "type": "Point",
        "coordinates": [
          -39.332799887602725,
          3.837132417740262
        ]
      }
    },
    {
      "type": "Feature",
      "properties": {
        "norad_id": 66627,
        "name": "STARLINK-35904",
        "group": "last-30-days",
        "lat": -35.580781222711416,
        "lon": -4.115204372756531,
        "alt_km": 451.96418505524707,
        "timestamp": "2025-12-21T22:41:40.163613+00:00",
        "meta_object_name": "STARLINK-35904",
        "meta_object_id": "2025-271L",
        "meta_epoch": "2025-12-21T14:00:01.999872",
        "meta_mean_motion": 15.39611363,
        "meta_eccentricity": 9.627e-05,
        "meta_inclination": 53.1593,
        "meta_ra_of_asc_node": 145.1548,
        "meta_arg_of_pericenter": 79.8998,
        "meta_mean_anomaly": 297.7498,
        "meta_ephemeris_type": 0,
        "meta_classification_type": "U",
        "meta_norad_cat_id": 66627,
        "meta_element_set_no": 999,
        "meta_rev_at_epoch": 550,
        "meta_bstar": 3.621708e-06,
        "meta_mean_motion_dot": -2.54e-06,
        "meta_mean_motion_ddot": 0,
        "tle_line1": "1 66627U 25271L   25355.58335648 -.00000254  00000+0  36217-5 0  9991",
        "tle_line2": "2 66627  53.1593 145.1548 0000962  79.8998 297.7498 15.39611363  5504"
      },
      "geometry": {
        "type": "Point",
        "coordinates": [
          -4.115204372756531,
          -35.580781222711416
        ]
      }
    },
    {
      "type": "Feature",
      "properties": {
        "norad_id": 66628,
        "name": "STARLINK-35862",
        "group": "last-30-days",
        "lat": -17.213949967150228,
        "lon": 129.79137681262392,
        "alt_km": 430.4575788550628,
        "timestamp": "2025-12-21T22:41:40.163623+00:00",
        "meta_object_name": "STARLINK-35862",
        "meta_object_id": "2025-271M",
        "meta_epoch": "2025-12-21T15:01:56.271936",
        "meta_mean_motion": 15.46332128,
        "meta_eccentricity": 0.00024169,
        "meta_inclination": 53.1604,
        "meta_ra_of_asc_node": 144.7425,
        "meta_arg_of_pericenter": 236.1286,
        "meta_mean_anomaly": 123.9492,
        "meta_ephemeris_type": 0,
        "meta_classification_type": "U",
        "meta_norad_cat_id": 66628,
        "meta_element_set_no": 999,
        "meta_rev_at_epoch": 558,
        "meta_bstar": 0.0017100955,
        "meta_mean_motion_dot": 0.00086273,
        "meta_mean_motion_ddot": 0,
        "tle_line1": "1 66628U 25271M   25355.62634574  .00086273  00000+0  17101-2 0  9999",
        "tle_line2": "2 66628  53.1604 144.7425 0002416 236.1286 123.9492 15.46332128  5580"
      },
      "geometry": {
        "type": "Point",
        "coordinates": [
          129.79137681262392,
          -17.213949967150228
        ]
      }
    },
    {
      "type": "Feature",
      "properties": {
        "norad_id": 66629,
        "name": "STARLINK-35956",
        "group": "last-30-days",
        "lat": 7.283286852060512,
        "lon": 148.6572677456744,
        "alt_km": 417.8054973043254,
        "timestamp": "2025-12-21T22:41:40.163637+00:00",
        "meta_object_name": "STARLINK-35956",
        "meta_object_id": "2025-271N",
        "meta_epoch": "2025-12-18T16:00:00.999936",
        "meta_mean_motion": 15.49463337,
        "meta_eccentricity": 5.424e-05,
        "meta_inclination": 53.1591,
        "meta_ra_of_asc_node": 158.846,
        "meta_arg_of_pericenter": 63.7637,
        "meta_mean_anomaly": 4.4961,
        "meta_ephemeris_type": 0,
        "meta_classification_type": "U",
        "meta_norad_cat_id": 66629,
        "meta_element_set_no": 999,
        "meta_rev_at_epoch": 519,
        "meta_bstar": 0.0002238515,
        "meta_mean_motion_dot": 0.00012088,
        "meta_mean_motion_ddot": 0,
        "tle_line1": "1 66629U 25271N   25352.66667824  .00012088  00000+0  22385-3 0  9999",
        "tle_line2": "2 66629  53.1591 158.8460 0000542  63.7637   4.4961 15.49463337  5194"
      },
      "geometry": {
        "type": "Point",
        "coordinates": [
          148.6572677456744,
          7.283286852060512
        ]
      }
    },
    {
      "type": "Feature",
      "properties": {
        "norad_id": 66630,
        "name": "STARLINK-35949",
        "group": "last-30-days",
        "lat": -13.899188699543048,
        "lon": 132.5197300324178,
        "alt_km": 431.1127100255608,
        "timestamp": "2025-12-21T22:41:40.163649+00:00",
        "meta_object_name": "STARLINK-35949",
        "meta_object_id": "2025-271P",
        "meta_epoch": "2025-12-19T21:07:53.060736",
        "meta_mean_motion": 15.46903837,
        "meta_eccentricity": 0.0003221,
        "meta_inclination": 53.1593,
        "meta_ra_of_asc_node": 153.0444,
        "meta_arg_of_pericenter": 47.5604,
        "meta_mean_anomaly": 312.5676,
        "meta_ephemeris_type": 0,
        "meta_classification_type": "U",
        "meta_norad_cat_id": 66630,
        "meta_element_set_no": 999,
        "meta_rev_at_epoch": 531,
        "meta_bstar": -0.005658,
        "meta_mean_motion_dot": -0.002797,
        "meta_mean_motion_ddot": 0,
        "tle_line1": "1 66630U 25271P   25353.88047524 -.00279700  00000+0 -56580-2 0  9996",
        "tle_line2": "2 66630  53.1593 153.0444 0003221  47.5604 312.5676 15.46903837  5319"
      },
      "geometry": {
        "type": "Point",
        "coordinates": [
          132.5197300324178,
          -13.899188699543048
        ]
      }
    }
  ]
}